{
  "type": "FeatureCollection",
  "features": [
    {
      "type": "Feature",
      "properties": {
        "norad_id": 38867,
        "name": "INTELSAT 23 (IS-23)",
        "group": "intelsat",
        "lat": -0.03391548293210523,
        "lon": -71.55705006910571,
        "alt_km": 35785.03067382896,
        "timestamp": "2025-12-20T16:47:35.959004+00:00",
        "meta_object_name": "INTELSAT 23 (IS-23)",
        "meta_object_id": "2012-057A",
        "meta_epoch": "2025-12-20T07:50:32.071776",
        "meta_mean_motion": 1.00268078,
        "meta_eccentricity": 5.44e-05,
        "meta_inclination": 0.0152,
        "meta_ra_of_asc_node": 45.7902,
        "meta_arg_of_pericenter": 264.189,
        "meta_mean_anomaly": 203.8466,
        "meta_ephemeris_type": 0,
        "meta_classification_type": "U",
        "meta_norad_cat_id": 38867,
        "meta_element_set_no": 999,
        "meta_rev_at_epoch": 4816,
        "meta_bstar": 0,
        "meta_mean_motion_dot": -2.61e-06,
        "meta_mean_motion_ddot": 0,
        "tle_line1": "1 38867U 12057A   25354.32676009 -.00000261  00000+0  00000+0 0  9997",
        "tle_line2": "2 38867   0.0152  45.7902 0000544 264.1890 203.8466  1.00268078 48162"
      },
      "geometry": {
        "type": "Point",
        "coordinates": [
          -71.55705006910571,
          -0.03391548293210523
        ]
      }
    },
    {
      "type": "Feature",
      "properties": {
        "norad_id": 39360,
        "name": "FM-6",
        "group": "intelsat",
        "lat": -0.006846927573426656,
        "lon": -134.7158025761547,
        "alt_km": 35778.42062412313,
        "timestamp": "2025-12-20T16:47:35.959016+00:00",
        "meta_object_name": "FM-6",
        "meta_object_id": "2013-058A",
        "meta_epoch": "2025-12-20T09:09:38.435040",
        "meta_mean_motion": 1.00270583,
        "meta_eccentricity": 0.0002777,
        "meta_inclination": 0.0124,
        "meta_ra_of_asc_node": 66.1155,
        "meta_arg_of_pericenter": 112.4546,
        "meta_mean_anomaly": 291.8986,
        "meta_ephemeris_type": 0,
        "meta_classification_type": "U",
        "meta_norad_cat_id": 39360,
        "meta_element_set_no": 999,
        "meta_rev_at_epoch": 4428,
        "meta_bstar": 0,
        "meta_mean_motion_dot": 7e-08,
        "meta_mean_motion_ddot": 0,
        "tle_line1": "1 39360U 13058A   25354.38169485  .00000007  00000+0  00000+0 0  9996",
        "tle_line2": "2 39360   0.0124  66.1155 0002777 112.4546 291.8986  1.00270583 44287"
      },
      "geometry": {
        "type": "Point",
        "coordinates": [
          -134.7158025761547,
          -0.006846927573426656
        ]
      }
    },
    {
      "type": "Feature",
      "properties": {
        "norad_id": 40271,
        "name": "INTELSAT 30 (IS-30)",
        "group": "intelsat",
        "lat": -0.032394736782280636,
        "lon": -113.61845238595893,
        "alt_km": 35790.608050487295,
        "timestamp": "2025-12-20T16:47:35.959028+00:00",
        "meta_object_name": "INTELSAT 30 (IS-30)",
        "meta_object_id": "2014-062A",
        "meta_epoch": "2025-12-20T12:34:47.341056",
        "meta_mean_motion": 1.00276751,
        "meta_eccentricity": 0.0001464,
        "meta_inclination": 0.0135,
        "meta_ra_of_asc_node": 19.8548,
        "meta_arg_of_pericenter": 64.3977,
        "meta_mean_anomaly": 98.7545,
        "meta_ephemeris_type": 0,
        "meta_classification_type": "U",
        "meta_norad_cat_id": 40271,
        "meta_element_set_no": 999,
        "meta_rev_at_epoch": 500,
        "meta_bstar": 0,
        "meta_mean_motion_dot": -1.28e-06,
        "meta_mean_motion_ddot": 0,
        "tle_line1": "1 40271U 14062A   25354.52415904 -.00000128  00000+0  00000+0 0  9996",
        "tle_line2": "2 40271   0.0135  19.8548 0001464  64.3977  98.7545  1.00276751  5003"
      },
      "geometry": {
        "type": "Point",
        "coordinates": [
          -113.61845238595893,
          -0.032394736782280636
        ]
      }
    },
    {
      "type": "Feature",
      "properties": {
        "norad_id": 40333,
        "name": "DIRECTV 14",
        "group": "intelsat",
        "lat": -0.04338026841728824,
        "lon": -117.79295445505463,
        "alt_km": 35786.629037995226,
        "timestamp": "2025-12-20T16:47:35.959039+00:00",
        "meta_object_name": "DIRECTV 14",
        "meta_object_id": "2014-078B",
        "meta_epoch": "2025-12-20T12:09:57.950208",
        "meta_mean_motion": 1.00270832,
        "meta_eccentricity": 3.93e-05,
        "meta_inclination": 0.0187,
        "meta_ra_of_asc_node": 347.3477,
        "meta_arg_of_pericenter": 155.8476,
        "meta_mean_anomaly": 29.4191,
        "meta_ephemeris_type": 0,
        "meta_classification_type": "U",
        "meta_norad_cat_id": 40333,
        "meta_element_set_no": 999,
        "meta_rev_at_epoch": 4025,
        "meta_bstar": 0,
        "meta_mean_motion_dot": -1.02e-06,
        "meta_mean_motion_ddot": 0,
        "tle_line1": "1 40333U 14078B   25354.50692072 -.00000102  00000+0  00000+0 0  9995",
        "tle_line2": "2 40333   0.0187 347.3477 0000393 155.8476  29.4191  1.00270832 40257"
      },
      "geometry": {
        "type": "Point",
        "coordinates": [
          -117.79295445505463,
          -0.04338026841728824
        ]
      }
    },
    {
      "type": "Feature",
      "properties": {
        "norad_id": 40663,
        "name": "DIRECTV 15",
        "group": "intelsat",
        "lat": -0.040485022331132416,
        "lon": -121.45854841749684,
        "alt_km": 35787.160059226844,
        "timestamp": "2025-12-20T16:47:35.959050+00:00",
        "meta_object_name": "DIRECTV 15",
        "meta_object_id": "2015-026A",
        "meta_epoch": "2025-12-20T12:06:43.367904",
        "meta_mean_motion": 1.00269898,
        "meta_eccentricity": 3.21e-05,
        "meta_inclination": 0.0255,
        "meta_ra_of_asc_node": 13.1615,
        "meta_arg_of_pericenter": 112.234,
        "meta_mean_anomaly": 42.7419,
        "meta_ephemeris_type": 0,
        "meta_classification_type": "U",
        "meta_norad_cat_id": 40663,
        "meta_element_set_no": 999,
        "meta_rev_at_epoch": 3867,
        "meta_bstar": 0,
        "meta_mean_motion_dot": 0,
        "meta_mean_motion_ddot": 0,
        "tle_line1": "1 40663U 15026A   25354.50466861  .00000000  00000+0  00000+0 0  9996",
        "tle_line2": "2 40663   0.0255  13.1615 0000321 112.2340  42.7419  1.00269898 38673"
      },
      "geometry": {
        "type": "Point",
        "coordinates": [
          -121.45854841749684,
          -0.040485022331132416
        ]
      }
    },
    {
      "type": "Feature",
      "properties": {
        "norad_id": 40664,
        "name": "SKY MEXICO-1",
        "group": "intelsat",
        "lat": -0.04028475227674418,
        "lon": -97.34980631873647,
        "alt_km": 35776.994696337475,
        "timestamp": "2025-12-20T16:47:35.959062+00:00",
        "meta_object_name": "SKY MEXICO-1",
        "meta_object_id": "2015-026B",
        "meta_epoch": "2025-12-20T12:05:09.616992",
        "meta_mean_motion": 1.00271901,
        "meta_eccentricity": 0.0002328,
        "meta_inclination": 0.0138,
        "meta_ra_of_asc_node": 342.5656,
        "meta_arg_of_pericenter": 303.1967,
        "meta_mean_anomaly": 266.1047,
        "meta_ephemeris_type": 0,
        "meta_classification_type": "U",
        "meta_norad_cat_id": 40664,
        "meta_element_set_no": 999,
        "meta_rev_at_epoch": 3866,
        "meta_bstar": 0,
        "meta_mean_motion_dot": -2.11e-06,
        "meta_mean_motion_ddot": 0,
        "tle_line1": "1 40664U 15026B   25354.50358353 -.00000211  00000+0  00000+0 0  9998",
        "tle_line2": "2 40664   0.0138 342.5656 0002328 303.1967 266.1047  1.00271901 38669"
      },
      "geometry": {
        "type": "Point",
        "coordinates": [
          -97.34980631873647,
          -0.04028475227674418
        ]
      }
    },
    {
      "type": "Feature",
      "properties": {
        "norad_id": 40874,
        "name": "INTELSAT 34 (IS-34)",
        "group": "intelsat",
        "lat": -0.03160079297435654,
        "lon": -74.06601477836703,
        "alt_km": 35787.41481402808,
        "timestamp": "2025-12-20T16:47:35.959073+00:00",
        "meta_object_name": "INTELSAT 34 (IS-34)",
        "meta_object_id": "2015-039A",
        "meta_epoch": "2025-12-20T06:07:04.479744",
        "meta_mean_motion": 1.00273654,
        "meta_eccentricity": 8.19e-05,
        "meta_inclination": 0.0141,
        "meta_ra_of_asc_node": 330.5177,
        "meta_arg_of_pericenter": 193.9408,
        "meta_mean_anomaly": 320.9045,
        "meta_ephemeris_type": 0,
        "meta_classification_type": "U",
        "meta_norad_cat_id": 40874,
        "meta_element_set_no": 999,
        "meta_rev_at_epoch": 3783,
        "meta_bstar": 0,
        "meta_mean_motion_dot": -2.61e-06,
        "meta_mean_motion_ddot": 0,
        "tle_line1": "1 40874U 15039A   25354.25491296 -.00000261  00000+0  00000+0 0  9996",
        "tle_line2": "2 40874   0.0141 330.5177 0000819 193.9408 320.9045  1.00273654 37831"
      },
      "geometry": {
        "type": "Point",
        "coordinates": [
          -74.06601477836703,
          -0.03160079297435654
        ]
      }
    }
  ]
}